SHIJIAN-6 02B (SJ-6 02B)
1 29506U 06046B   26088.16319133  .00002330  00000+0  18658-3 0  9997
2 29506  97.7102 117.7467 0012782 340.9439  19.1305 15.01094763 58733
FGRST (GLAST)           
1 33053U 08029A   26088.20250623  .00005299  00000+0  20199-3 0  9995
2 33053  25.5833  39.6660 0008604 101.8514 258.2990 15.23478131983628
SDO                     
1 36395U 10005A   26088.02354455 -.00000060  00000+0  00000+0 0  9999
2 36395  34.4848  87.5506 0000773  32.8707 332.6912  1.00273905 59269
CRYOSAT 2               
1 36508U 10013A   26088.20313508  .00000274  00000+0  67289-4 0  9991
2 36508  92.0246 257.9079 0002286  97.0739 263.0728 14.51908171846473
X-SAT                   
1 37389U 11015C   26088.19061975  .00000391  00000+0  18377-3 0  9991
2 37389  98.3454  69.0531 0013170 214.2195 145.8138 14.25181342776286
GCOM-W1 (SHIZUKU)       
1 38337U 12025A   26087.82563120  .00000665  00000+0  15767-3 0  9999
2 38337  98.2078  29.6026 0001225  73.0027 341.1456 14.57125156737338
NUSTAR                  
1 38358U 12031A   26088.25003471  .00010758  00000+0  62435-3 0  9993
2 38358   6.0271 273.4049 0008277 349.9070  71.4281 15.07971210  1300
NEOSSAT                 
1 39089U 13009D   26088.06928831  .00000233  00000+0  95130-4 0  9992
2 39089  98.4158 270.0113 0011994 122.4276 237.8072 14.35795704685247
BRITE-AUSTRIA           
1 39091U 13009F   26088.03799880  .00000241  00000+0  96728-4 0  9995
2 39091  98.3973 269.4628 0011288 116.9430 243.2910 14.36506933685543
IRIS                    
1 39197U 13033A   26088.09166734  .00001441  00000+0  17170-3 0  9997
2 39197  97.9391 287.6004 0023618 218.6236 141.3290 14.85703751688489
HISAKI (SPRINT-A)       
1 39253U 13049A   26088.14624225  .00000142  00000+0  10626-3 0  9993
2 39253  29.7191 266.9428 0136413  87.8930 273.7256 13.55533453620550
CASSIOPE                
1 39265U 13055A   26088.17682410  .00040690 -28317-6  48464-3 0  9998
2 39265  80.9177 163.4914 0309118 331.0934  27.3465 15.20209852655492
STSAT-3                 
1 39422U 13066G   26088.19651112  .00005011  00000+0  38397-3 0  9995
2 39422  97.6133  59.4509 0009632 305.6169  54.4158 15.02253995672196
SWARM B                 
1 39451U 13067A   26088.18596273  .00005662  00000+0  20595-3 0  9996
2 39451  87.7503   6.5866 0003166  77.1946 282.9656 15.28039261671026
SWARM A                 
1 39452U 13067B   26088.23333715  .00015354  00000+0  28092-3 0  9992
2 39452  87.3279  85.9094 0003413  95.5305 264.6344 15.49215248693866
SWARM C                 
1 39453U 13067C   26088.23325287  .00015598  00000+0  28543-3 0  9999
2 39453  87.3278  84.4904 0003400  95.4891 264.6757 15.49211202693825
BRITE-CA1 (TORONTO)     
1 40020U 14033L   26087.92787661  .00001630  00000+0  25218-3 0  9996
2 40020  97.9603 218.4023 0079091 172.9629 187.2709 14.72522433630404
