[{"OBJECT_NAME":"SHIJIAN-6 02B (SJ-6 02B)","OBJECT_ID":"2006-046B","EPOCH":"2026-03-29T03:54:59.730912","MEAN_MOTION":15.01094763,"ECCENTRICITY":0.0012782,"INCLINATION":97.7102,"RA_OF_ASC_NODE":117.7467,"ARG_OF_PERICENTER":340.9439,"MEAN_ANOMALY":19.1305,"EPHEMERIS_TYPE":0,"CLASSIFICATION_TYPE":"U","NORAD_CAT_ID":29506,"ELEMENT_SET_NO":999,"REV_AT_EPOCH":5873,"BSTAR":0.00018658,"MEAN_MOTION_DOT":2.33e-5,"MEAN_MOTION_DDOT":0},{"OBJECT_NAME":"FGRST (GLAST)","OBJECT_ID":"2008-029A","EPOCH":"2026-03-29T04:51:36.538272","MEAN_MOTION":15.23478131,"ECCENTRICITY":0.0008604,"INCLINATION":25.5833,"RA_OF_ASC_NODE":39.666,"ARG_OF_PERICENTER":101.8514,"MEAN_ANOMALY":258.299,"EPHEMERIS_TYPE":0,"CLASSIFICATION_TYPE":"U","NORAD_CAT_ID":33053,"ELEMENT_SET_NO":999,"REV_AT_EPOCH":98362,"BSTAR":0.00020199,"MEAN_MOTION_DOT":5.299e-5,"MEAN_MOTION_DDOT":0},{"OBJECT_NAME":"SDO","OBJECT_ID":"2010-005A","EPOCH":"2026-03-29T00:33:54.249120","MEAN_MOTION":1.00273905,"ECCENTRICITY":7.73e-5,"INCLINATION":34.4848,"RA_OF_ASC_NODE":87.5506,"ARG_OF_PERICENTER":32.8707,"MEAN_ANOMALY":332.6912,"EPHEMERIS_TYPE":0,"CLASSIFICATION_TYPE":"U","NORAD_CAT_ID":36395,"ELEMENT_SET_NO":999,"REV_AT_EPOCH":5926,"BSTAR":0,"MEAN_MOTION_DOT":-6.0e-7,"MEAN_MOTION_DDOT":0},{"OBJECT_NAME":"CRYOSAT 2","OBJECT_ID":"2010-013A","EPOCH":"2026-03-29T04:52:30.870912","MEAN_MOTION":14.51908171,"ECCENTRICITY":0.0002286,"INCLINATION":92.0246,"RA_OF_ASC_NODE":257.9079,"ARG_OF_PERICENTER":97.0739,"MEAN_ANOMALY":263.0728,"EPHEMERIS_TYPE":0,"CLASSIFICATION_TYPE":"U","NORAD_CAT_ID":36508,"ELEMENT_SET_NO":999,"REV_AT_EPOCH":84647,"BSTAR":6.7289e-5,"MEAN_MOTION_DOT":2.74e-6,"MEAN_MOTION_DDOT":0},{"OBJECT_NAME":"X-SAT","OBJECT_ID":"2011-015C","EPOCH":"2026-03-29T04:34:29.546400","MEAN_MOTION":14.25181342,"ECCENTRICITY":0.001317,"INCLINATION":98.3454,"RA_OF_ASC_NODE":69.0531,"ARG_OF_PERICENTER":214.2195,"MEAN_ANOMALY":145.8138,"EPHEMERIS_TYPE":0,"CLASSIFICATION_TYPE":"U","NORAD_CAT_ID":37389,"ELEMENT_SET_NO":999,"REV_AT_EPOCH":77628,"BSTAR":0.00018377,"MEAN_MOTION_DOT":3.91e-6,"MEAN_MOTION_DDOT":0},{"OBJECT_NAME":"GCOM-W1 (SHIZUKU)","OBJECT_ID":"2012-025A","EPOCH":"2026-03-28T19:48:54.535680","MEAN_MOTION":14.57125156,"ECCENTRICITY":0.0001225,"INCLINATION":98.2078,"RA_OF_ASC_NODE":29.6026,"ARG_OF_PERICENTER":73.0027,"MEAN_ANOMALY":341.1456,"EPHEMERIS_TYPE":0,"CLASSIFICATION_TYPE":"U","NORAD_CAT_ID":38337,"ELEMENT_SET_NO":999,"REV_AT_EPOCH":73733,"BSTAR":0.00015767,"MEAN_MOTION_DOT":6.65e-6,"MEAN_MOTION_DDOT":0},{"OBJECT_NAME":"NUSTAR","OBJECT_ID":"2012-031A","EPOCH":"2026-03-29T06:00:02.998944","MEAN_MOTION":15.0797121,"ECCENTRICITY":0.0008277,"INCLINATION":6.0271,"RA_OF_ASC_NODE":273.4049,"ARG_OF_PERICENTER":349.907,"MEAN_ANOMALY":71.4281,"EPHEMERIS_TYPE":0,"CLASSIFICATION_TYPE":"U","NORAD_CAT_ID":38358,"ELEMENT_SET_NO":999,"REV_AT_EPOCH":130,"BSTAR":0.00062435,"MEAN_MOTION_DOT":0.00010758,"MEAN_MOTION_DDOT":0},{"OBJECT_NAME":"NEOSSAT","OBJECT_ID":"2013-009D","EPOCH":"2026-03-29T01:39:46.509984","MEAN_MOTION":14.35795704,"ECCENTRICITY":0.0011994,"INCLINATION":98.4158,"RA_OF_ASC_NODE":270.0113,"ARG_OF_PERICENTER":122.4276,"MEAN_ANOMALY":237.8072,"EPHEMERIS_TYPE":0,"CLASSIFICATION_TYPE":"U","NORAD_CAT_ID":39089,"ELEMENT_SET_NO":999,"REV_AT_EPOCH":68524,"BSTAR":9.513e-5,"MEAN_MOTION_DOT":2.33e-6,"MEAN_MOTION_DDOT":0},{"OBJECT_NAME":"BRITE-AUSTRIA","OBJECT_ID":"2013-009F","EPOCH":"2026-03-29T00:54:43.096320","MEAN_MOTION":14.36506933,"ECCENTRICITY":0.0011288,"INCLINATION":98.3973,"RA_OF_ASC_NODE":269.4628,"ARG_OF_PERICENTER":116.943,"MEAN_ANOMALY":243.291,"EPHEMERIS_TYPE":0,"CLASSIFICATION_TYPE":"U","NORAD_CAT_ID":39091,"ELEMENT_SET_NO":999,"REV_AT_EPOCH":68554,"BSTAR":9.6728e-5,"MEAN_MOTION_DOT":2.41e-6,"MEAN_MOTION_DDOT":0},{"OBJECT_NAME":"IRIS","OBJECT_ID":"2013-033A","EPOCH":"2026-03-29T02:12:00.058176","MEAN_MOTION":14.85703751,"ECCENTRICITY":0.0023618,"INCLINATION":97.9391,"RA_OF_ASC_NODE":287.6004,"ARG_OF_PERICENTER":218.6236,"MEAN_ANOMALY":141.329,"EPHEMERIS_TYPE":0,"CLASSIFICATION_TYPE":"U","NORAD_CAT_ID":39197,"ELEMENT_SET_NO":999,"REV_AT_EPOCH":68848,"BSTAR":0.0001717,"MEAN_MOTION_DOT":1.441e-5,"MEAN_MOTION_DDOT":0},{"OBJECT_NAME":"HISAKI (SPRINT-A)","OBJECT_ID":"2013-049A","EPOCH":"2026-03-29T03:30:35.330400","MEAN_MOTION":13.55533453,"ECCENTRICITY":0.0136413,"INCLINATION":29.7191,"RA_OF_ASC_NODE":266.9428,"ARG_OF_PERICENTER":87.893,"MEAN_ANOMALY":273.7256,"EPHEMERIS_TYPE":0,"CLASSIFICATION_TYPE":"U","NORAD_CAT_ID":39253,"ELEMENT_SET_NO":999,"REV_AT_EPOCH":62055,"BSTAR":0.00010626,"MEAN_MOTION_DOT":1.42e-6,"MEAN_MOTION_DDOT":0},{"OBJECT_NAME":"CASSIOPE","OBJECT_ID":"2013-055A","EPOCH":"2026-03-29T04:14:37.602240","MEAN_MOTION":15.20209852,"ECCENTRICITY":0.0309118,"INCLINATION":80.9177,"RA_OF_ASC_NODE":163.4914,"ARG_OF_PERICENTER":331.0934,"MEAN_ANOMALY":27.3465,"EPHEMERIS_TYPE":0,"CLASSIFICATION_TYPE":"U","NORAD_CAT_ID":39265,"ELEMENT_SET_NO":999,"REV_AT_EPOCH":65549,"BSTAR":0.00048464,"MEAN_MOTION_DOT":0.0004069,"MEAN_MOTION_DDOT":-2.8317e-7},{"OBJECT_NAME":"STSAT-3","OBJECT_ID":"2013-066G","EPOCH":"2026-03-29T04:42:58.560768","MEAN_MOTION":15.02253995,"ECCENTRICITY":0.0009632,"INCLINATION":97.6133,"RA_OF_ASC_NODE":59.4509,"ARG_OF_PERICENTER":305.6169,"MEAN_ANOMALY":54.4158,"EPHEMERIS_TYPE":0,"CLASSIFICATION_TYPE":"U","NORAD_CAT_ID":39422,"ELEMENT_SET_NO":999,"REV_AT_EPOCH":67219,"BSTAR":0.00038397,"MEAN_MOTION_DOT":5.011e-5,"MEAN_MOTION_DDOT":0},{"OBJECT_NAME":"SWARM B","OBJECT_ID":"2013-067A","EPOCH":"2026-03-29T04:27:47.179872","MEAN_MOTION":15.28039261,"ECCENTRICITY":0.0003166,"INCLINATION":87.7503,"RA_OF_ASC_NODE":6.5866,"ARG_OF_PERICENTER":77.1946,"MEAN_ANOMALY":282.9656,"EPHEMERIS_TYPE":0,"CLASSIFICATION_TYPE":"U","NORAD_CAT_ID":39451,"ELEMENT_SET_NO":999,"REV_AT_EPOCH":67102,"BSTAR":0.00020595,"MEAN_MOTION_DOT":5.662e-5,"MEAN_MOTION_DDOT":0},{"OBJECT_NAME":"SWARM A","OBJECT_ID":"2013-067B","EPOCH":"2026-03-29T05:36:00.329760","MEAN_MOTION":15.49215248,"ECCENTRICITY":0.0003413,"INCLINATION":87.3279,"RA_OF_ASC_NODE":85.9094,"ARG_OF_PERICENTER":95.5305,"MEAN_ANOMALY":264.6344,"EPHEMERIS_TYPE":0,"CLASSIFICATION_TYPE":"U","NORAD_CAT_ID":39452,"ELEMENT_SET_NO":999,"REV_AT_EPOCH":69386,"BSTAR":0.00028092,"MEAN_MOTION_DOT":0.00015354,"MEAN_MOTION_DDOT":0},{"OBJECT_NAME":"SWARM C","OBJECT_ID":"2013-067C","EPOCH":"2026-03-29T05:35:53.047968","MEAN_MOTION":15.49211202,"ECCENTRICITY":0.00034,"INCLINATION":87.3278,"RA_OF_ASC_NODE":84.4904,"ARG_OF_PERICENTER":95.4891,"MEAN_ANOMALY":264.6757,"EPHEMERIS_TYPE":0,"CLASSIFICATION_TYPE":"U","NORAD_CAT_ID":39453,"ELEMENT_SET_NO":999,"REV_AT_EPOCH":69382,"BSTAR":0.00028543,"MEAN_MOTION_DOT":0.00015598,"MEAN_MOTION_DDOT":0},{"OBJECT_NAME":"BRITE-CA1 (TORONTO)","OBJECT_ID":"2014-033L","EPOCH":"2026-03-28T22:16:08.539104","MEAN_MOTION":14.72522433,"ECCENTRICITY":0.0079091,"INCLINATION":97.9603,"RA_OF_ASC_NODE":218.4023,"ARG_OF_PERICENTER":172.9629,"MEAN_ANOMALY":187.2709,"EPHEMERIS_TYPE":0,"CLASSIFICATION_TYPE":"U","NORAD_CAT_ID":40020,"ELEMENT_SET_NO":999,"REV_AT_EPOCH":63040,"BSTAR":0.00025218,"MEAN_MOTION_DOT":1.63e-5,"MEAN_MOTION_DDOT":0}]
